{"type": "FeatureCollection", "features": [ {"type": "Feature", "properties": {"norad_id": 30530, "name": "FENGYUN 1C DEB", "group": "fengyun-1c-debris", "lat": -48.495978508496634, "lon": -153.80041482063945, "alt_km": 816.3990229507699, "timestamp": "2025-12-23T16:57:12.629492+00:00", "meta": {"OBJECT_NAME": "FENGYUN 1C DEB", "OBJECT_ID": "1999-025AJU", "EPOCH": "2025-12-22T13:54:08.404416", "MEAN_MOTION": 14.36797492, "ECCENTRICITY": 0.01004249, "INCLINATION": 98.3951, "RA_OF_ASC_NODE": 34.7075, "ARG_OF_PERICENTER": 107.6905, "MEAN_ANOMALY": 53.7863, "EPHEMERIS_TYPE": 0, "CLASSIFICATION_TYPE": "U", "NORAD_CAT_ID": 30530, "ELEMENT_SET_NO": 999, "REV_AT_EPOCH": 98926, "BSTAR": 0.00021823672, "MEAN_MOTION_DOT": 6.39e-06, "MEAN_MOTION_DDOT": 0}, "tle": {"line1": "1 30530U 99025AJU 25356.57926394  .00000639  00000+0  21824-3 0  9999", "line2": "2 30530  98.3951  34.7075 0100424 107.6905  53.7863 14.36797492989261"}}, "geometry": {"type": "Point", "coordinates": [-153.80041482063945, -48.495978508496634]}}, {"type": "Feature", "properties": {"norad_id": 30531, "name": "FENGYUN 1C DEB", "group": "fengyun-1c-debris", "lat": -7.30929519461938, "lon": 7.5629237110308685, "alt_km": 671.0217289073626, "timestamp": "2025-12-23T16:57:12.629502+00:00", "meta": {"OBJECT_NAME": "FENGYUN 1C DEB", "OBJECT_ID": "1999-025AJV", "EPOCH": "2025-12-21T06:37:22.804896", "MEAN_MOTION": 14.6217341, "ECCENTRICITY": 0.0026846, "INCLINATION": 102.3094, "RA_OF_ASC_NODE": 185.5623, "ARG_OF_PERICENTER": 182.9968, "MEAN_ANOMALY": 177.106, "EPHEMERIS_TYPE": 0, "CLASSIFICATION_TYPE": "U", "NORAD_CAT_ID": 30531, "ELEMENT_SET_NO": 999, "REV_AT_EPOCH": 97820, "BSTAR": 0.003253, "MEAN_MOTION_DOT": 0.00016415, "MEAN_MOTION_DDOT": 0}, "tle": {"line1": "1 30531U 99025AJV 25355.27595839  .00016415  00000+0  32530-2 0  9996", "line2": "2 30531 102.3094 185.5623 0026846 182.9968 177.1060 14.62173410978209"}}, "geometry": {"type": "Point", "coordinates": [7.5629237110308685, -7.30929519461938]}}, {"type": "Feature", "properties": {"norad_id": 30532, "name": "FENGYUN 1C DEB", "group": "fengyun-1c-debris", "lat": 59.125088666689415, "lon": 30.4534400847006, "alt_km": 475.24341284664933, "timestamp": "2025-12-23T16:57:12.629514+00:00", "meta": {"OBJECT_NAME": "FENGYUN 1C DEB", "OBJECT_ID": "1999-025AJW", "EPOCH": "2025-12-22T09:20:46.232736", "MEAN_MOTION": 15.31741408, "ECCENTRICITY": 0.00210939, "INCLINATION": 96.9606, "RA_OF_ASC_NODE": 41.0058, "ARG_OF_PERICENTER": 225.5619, "MEAN_ANOMALY": 134.3898, "EPHEMERIS_TYPE": 0, "CLASSIFICATION_TYPE": "U", "NORAD_CAT_ID": 30532, "ELEMENT_SET_NO": 999, "REV_AT_EPOCH": 97835, "BSTAR": 0.013490382, "MEAN_MOTION_DOT": 0.00439979, "MEAN_MOTION_DDOT": 0}, "tle": {"line1": "1 30532U 99025AJW 25356.38942399  .00439979  00000+0  13490-1 0  9994", "line2": "2 30532  96.9606  41.0058 0021093 225.5619 134.3898 15.31741408978356"}}, "geometry": {"type": "Point", "coordinates": [30.4534400847006, 59.125088666689415]}}, {"type": "Feature", "properties": {"norad_id": 30533, "name": "FENGYUN 1C DEB", "group": "fengyun-1c-debris", "lat": -19.668154924343977, "lon": -56.064064126486436, "alt_km": 710.5802039955288, "timestamp": "2025-12-23T16:57:12.629524+00:00", "meta": {"OBJECT_NAME": "FENGYUN 1C DEB", "OBJECT_ID": "1999-025AJX", "EPOCH": "2025-12-22T20:48:06.492384", "MEAN_MOTION": 14.54055426, "ECCENTRICITY": 0.00814425, "INCLINATION": 98.8346, "RA_OF_ASC_NODE": 126.2369, "ARG_OF_PERICENTER": 118.7442, "MEAN_ANOMALY": 7.3842, "EPHEMERIS_TYPE": 0, "CLASSIFICATION_TYPE": "U", "NORAD_CAT_ID": 30533, "ELEMENT_SET_NO": 999, "REV_AT_EPOCH": 97968, "BSTAR": 0.0031968502, "MEAN_MOTION_DOT": 0.00014073, "MEAN_MOTION_DDOT": 0}, "tle": {"line1": "1 30533U 99025AJX 25356.86674181  .00014073  00000+0  31969-2 0  9995", "line2": "2 30533  98.8346 126.2369 0081442 118.7442   7.3842 14.54055426979688"}}, "geometry": {"type": "Point", "coordinates": [-56.064064126486436, -19.668154924343977]}}, {"type": "Feature", "properties": {"norad_id": 30539, "name": "FENGYUN 1C DEB", "group": "fengyun-1c-debris", "lat": -15.547885377077094, "lon": -18.655667833808852, "alt_km": 728.946523247042, "timestamp": "2025-12-23T16:57:12.629534+00:00", "meta": {"OBJECT_NAME": "FENGYUN 1C DEB", "OBJECT_ID": "1999-025AKD", "EPOCH": "2025-12-22T21:13:37.514208", "MEAN_MOTION": 14.55459081, "ECCENTRICITY": 0.0115293, "INCLINATION": 98.8812, "RA_OF_ASC_NODE": 337.9773, "ARG_OF_PERICENTER": 244.6832, "MEAN_ANOMALY": 114.2385, "EPHEMERIS_TYPE": 0, "CLASSIFICATION_TYPE": "U", "NORAD_CAT_ID": 30539, "ELEMENT_SET_NO": 999, "REV_AT_EPOCH": 99513, "BSTAR": 0.00060297, "MEAN_MOTION_DOT": 2.81e-05, "MEAN_MOTION_DDOT": 0}, "tle": {"line1": "1 30539U 99025AKD 25356.88446197  .00002810  00000+0  60297-3 0  9990", "line2": "2 30539  98.8812 337.9773 0115293 244.6832 114.2385 14.55459081995130"}}, "geometry": {"type": "Point", "coordinates": [-18.655667833808852, -15.547885377077094]}}, {"type": "Feature", "properties": {"norad_id": 30540, "name": "FENGYUN 1C DEB", "group": "fengyun-1c-debris", "lat": 0.2030735634762822, "lon": 106.27747627294038, "alt_km": 754.9314095113523, "timestamp": "2025-12-23T16:57:12.629547+00:00", "meta": {"OBJECT_NAME": "FENGYUN 1C DEB", "OBJECT_ID": "1999-025AKE", "EPOCH": "2025-12-21T06:31:41.312352", "MEAN_MOTION": 14.32352224, "ECCENTRICITY": 0.0050766, "INCLINATION": 98.8791, "RA_OF_ASC_NODE": 103.8175, "ARG_OF_PERICENTER": 36.6295, "MEAN_ANOMALY": 18.1633, "EPHEMERIS_TYPE": 0, "CLASSIFICATION_TYPE": "U", "NORAD_CAT_ID": 30540, "ELEMENT_SET_NO": 999, "REV_AT_EPOCH": 97408, "BSTAR": 0.0013384, "MEAN_MOTION_DOT": 3.624e-05, "MEAN_MOTION_DDOT": 0}, "tle": {"line1": "1 30540U 99025AKE 25355.27200593  .00003624  00000+0  13384-2 0  9990", "line2": "2 30540  98.8791 103.8175 0050766  36.6295  18.1633 14.32352224974084"}}, "geometry": {"type": "Point", "coordinates": [106.27747627294038, 0.2030735634762822]}}, {"type": "Feature", "properties": {"norad_id": 30541, "name": "FENGYUN 1C DEB", "group": "fengyun-1c-debris", "lat": 27.988318629634236, "lon": 39.44603717399857, "alt_km": 802.2058008322119, "timestamp": "2025-12-23T16:57:12.629576+00:00", "meta": {"OBJECT_NAME": "FENGYUN 1C DEB", "OBJECT_ID": "1999-025AKF", "EPOCH": "2025-12-23T01:38:03.912576", "MEAN_MOTION": 14.23100371, "ECCENTRICITY": 0.0017641, "INCLINATION": 98.6932, "RA_OF_ASC_NODE": 43.4798, "ARG_OF_PERICENTER": 56.3539, "MEAN_ANOMALY": 303.9319, "EPHEMERIS_TYPE": 0, "CLASSIFICATION_TYPE": "U", "NORAD_CAT_ID": 30541, "ELEMENT_SET_NO": 999, "REV_AT_EPOCH": 97474, "BSTAR": 0.0011453081, "MEAN_MOTION_DOT": 2.545e-05, "MEAN_MOTION_DDOT": 0}, "tle": {"line1": "1 30541U 99025AKF 25357.06810084  .00002545  00000+0  11453-2 0  9998", "line2": "2 30541  98.6932  43.4798 0017641  56.3539 303.9319 14.23100371974748"}}, "geometry": {"type": "Point", "coordinates": [39.44603717399857, 27.988318629634236]}}, {"type": "Feature", "properties": {"norad_id": 30542, "name": "FENGYUN 1C DEB", "group": "fengyun-1c-debris", "lat": -18.83518918830551, "lon": 29.16688721114841, "alt_km": 859.2838670383562, "timestamp": "2025-12-23T16:57:12.629588+00:00", "meta": {"OBJECT_NAME": "FENGYUN 1C DEB", "OBJECT_ID": "1999-025AKG", "EPOCH": "2025-12-23T01:59:08.805120", "MEAN_MOTION": 14.06979504, "ECCENTRICITY": 0.00271453, "INCLINATION": 98.7859, "RA_OF_ASC_NODE": 25.537, "ARG_OF_PERICENTER": 304.3656, "MEAN_ANOMALY": 119.3486, "EPHEMERIS_TYPE": 0, "CLASSIFICATION_TYPE": "U", "NORAD_CAT_ID": 30542, "ELEMENT_SET_NO": 999, "REV_AT_EPOCH": 97064, "BSTAR": 0.00017401497, "MEAN_MOTION_DOT": 2.48e-06, "MEAN_MOTION_DDOT": 0}, "tle": {"line1": "1 30542U 99025AKG 25357.08274080  .00000248  00000+0  17401-3 0  9999", "line2": "2 30542  98.7859  25.5370 0027145 304.3656 119.3486 14.06979504970643"}}, "geometry": {"type": "Point", "coordinates": [29.16688721114841, -18.83518918830551]}}, {"type": "Feature", "properties": {"norad_id": 30543, "name": "FENGYUN 1C DEB", "group": "fengyun-1c-debris", "lat": -69.60166440425378, "lon": 31.679171422169066, "alt_km": 873.8828974211774, "timestamp": "2025-12-23T16:57:12.629599+00:00", "meta": {"OBJECT_NAME": "FENGYUN 1C DEB", "OBJECT_ID": "1999-025AKH", "EPOCH": "2025-12-23T00:18:29.572992", "MEAN_MOTION": 14.03750326, "ECCENTRICITY": 0.00721758, "INCLINATION": 98.8329, "RA_OF_ASC_NODE": 6.2877, "ARG_OF_PERICENTER": 5.1158, "MEAN_ANOMALY": 21.2415, "EPHEMERIS_TYPE": 0, "CLASSIFICATION_TYPE": "U", "NORAD_CAT_ID": 30543, "ELEMENT_SET_NO": 999, "REV_AT_EPOCH": 96649, "BSTAR": 0.00015134965, "MEAN_MOTION_DOT": 2.01e-06, "MEAN_MOTION_DDOT": 0}, "tle": {"line1": "1 30543U 99025AKH 25357.01284228  .00000201  00000+0  15135-3 0  9999", "line2": "2 30543  98.8329   6.2877 0072175   5.1158  21.2415 14.03750326966498"}}, "geometry": {"type": "Point", "coordinates": [31.679171422169066, -69.60166440425378]}}, {"type": "Feature", "properties": {"norad_id": 30545, "name": "FENGYUN 1C DEB", "group": "fengyun-1c-debris", "lat": -58.32990121365729, "lon": 13.50831686669175, "alt_km": 1264.7595953998289, "timestamp": "2025-12-23T16:57:12.629638+00:00", "meta": {"OBJECT_NAME": "FENGYUN 1C DEB", "OBJECT_ID": "1999-025AKK", "EPOCH": "2025-12-16T01:55:01.765920", "MEAN_MOTION": 13.20785031, "ECCENTRICITY": 0.04726799, "INCLINATION": 98.9986, "RA_OF_ASC_NODE": 201.8152, "ARG_OF_PERICENTER": 2.8282, "MEAN_ANOMALY": 357.5348, "EPHEMERIS_TYPE": 0, "CLASSIFICATION_TYPE": "U", "NORAD_CAT_ID": 30545, "ELEMENT_SET_NO": 999, "REV_AT_EPOCH": 90974, "BSTAR": 0.00057440201, "MEAN_MOTION_DOT": 3.84e-06, "MEAN_MOTION_DDOT": 0}, "tle": {"line1": "1 30545U 99025AKK 25350.07988155  .00000384  00000+0  57440-3 0  9997", "line2": "2 30545  98.9986 201.8152 0472679   2.8282 357.5348 13.20785031909748"}}, "geometry": {"type": "Point", "coordinates": [13.50831686669175, -58.32990121365729]}}]}